OBJECT B                
1 51825U 22019B   25162.89061527  .00016315  00000+0  40193-3 0  9994
2 51825  97.3857 239.5471 0010806  50.1002 310.1193 15.40596124182259
